NORAD_CAT_ID,OBJECT_NAME,OBJECT_TYPE,EPOCH,MEAN_MOTION,ECCENTRICITY,INCLINATION,RA_OF_ASC_NODE,ARG_OF_PERICENTER,MEAN_ANOMALY,BSTAR,MEAN_MOTION_DOT,MEAN_MOTION_DDOT,TLE_LINE0,TLE_LINE1,TLE_LINE2,SEMIMAJOR_AXIS,PERIOD,APOGEE,PERIGEE,DECAYED
54179.0,STARLINK-5122,PAYLOAD,2023-01-29 02:23:55,15.08833106,0.0001341,53.2162,61.8669,101.4311,258.6832,3.0517e-05,1.98e-06,0.0,0 STARLINK-5122,1 54179U 22141Y   23029.09994793  .00000198  00000-0  30517-4 0  9990,2 54179  53.2162  61.8669 0001341 101.4311 258.6832 15.08833106 14658,6917.901,95.438,540.694,538.839,0.0
54179.0,STARLINK-5122,PAYLOAD,2023-01-29 08:45:27,15.08841329,0.0001511,53.2165,60.6779,103.446,256.6701,-1.085e-05,-4.61e-06,0.0,0 STARLINK-5122,1 54179U 22141Y   23029.36490489 -.00000461  00000-0 -10850-4 0  9996,2 54179  53.2165  60.6779 0001511 103.4460 256.6701 15.08841329 14699,6917.876,95.437,540.787,538.696,0.0
54179.0,STARLINK-5122,PAYLOAD,2023-01-30 00:39:19,15.08830716,0.0001408,53.2164,57.7048,91.6191,268.4963,1.3041e-05,-8e-07,0.0,0 STARLINK-5122,1 54179U 22141Y   23030.02731187 -.00000080  00000-0  13041-4 0  9995,2 54179  53.2164  57.7048 0001408  91.6191 268.4963 15.08830716 14798,6917.909,95.438,540.748,538.8,0.0
54179.0,STARLINK-5122,PAYLOAD,2023-01-30 07:00:52,15.08832062,0.0001423,53.2165,56.5157,91.5782,268.5373,1.59e-05,-3.5e-07,0.0,0 STARLINK-5122,1 54179U 22141Y   23030.29227194 -.00000035  00000-0  15900-4 0  9998,2 54179  53.2165  56.5157 0001423  91.5782 268.5373 15.08832062 14601,6917.905,95.438,540.754,538.785,0.0
54179.0,STARLINK-5122,PAYLOAD,2023-01-30 21:19:20,15.08837179,0.0001399,53.2166,53.84,90.448,269.6672,-1.0779e-05,-4.59e-06,0.0,0 STARLINK-5122,1 54179U 22141Y   23030.88843070 -.00000459  00000-0 -10779-4 0  9990,2 54179  53.2166  53.8400 0001399  90.4480 269.6672 15.08837179 14695,6917.889,95.438,540.722,538.786,0.0
54179.0,STARLINK-5122,PAYLOAD,2023-01-31 02:05:29,15.08836395,0.0001336,53.2164,52.9471,96.6692,263.4452,-1.0312e-05,-4.52e-06,0.0,0 STARLINK-5122,1 54179U 22141Y   23031.08715186 -.00000452  00000-0 -10312-4 0  9995,2 54179  53.2164  52.9471 0001336  96.6692 263.4452 15.08836395 14951,6917.891,95.438,540.681,538.832,0.0
54179.0,STARLINK-5122,PAYLOAD,2023-01-31 10:02:25,15.08843681,0.0001315,53.2165,51.4605,92.7675,267.3468,4.8945e-05,4.91e-06,0.0,0 STARLINK-5122,1 54179U 22141Y   23031.41834547  .00000491  00000-0  48945-4 0  9999,2 54179  53.2165  51.4605 0001315  92.7675 267.3468 15.08843681 15003,6917.869,95.437,540.644,538.824,0.0
54179.0,STARLINK-5122,PAYLOAD,2023-01-31 17:59:21,15.08835158,0.0001279,53.2166,49.9735,93.1902,266.9236,2.0336e-05,3.6e-07,0.0,0 STARLINK-5122,1 54179U 22141Y   23031.74955163  .00000036  00000-0  20336-4 0  9992,2 54179  53.2166  49.9735 0001279  93.1902 266.9236 15.08835158 15050,6917.895,95.438,540.645,538.875,0.0
54179.0,STARLINK-5122,PAYLOAD,2023-01-31 21:10:07,15.08833098,0.0001288,53.2165,49.379,94.2695,265.8444,-5.2777e-07,-2.96e-06,0.0,0 STARLINK-5122,1 54179U 22141Y   23031.88203416 -.00000296  00000-0 -52777-6 0  9990,2 54179  53.2165  49.3790 0001288  94.2695 265.8444 15.08833098 14841,6917.901,95.438,540.658,538.875,0.0
54179.0,STARLINK-5122,PAYLOAD,2023-02-01 08:17:49,15.08841927,0.0001323,53.2167,47.2975,98.7102,261.404,6.9172e-05,8.13e-06,0.0,0 STARLINK-5122,1 54179U 22141Y   23032.34570656  .00000813  00000-0  69172-4 0  9993,2 54179  53.2167  47.2975 0001323  98.7102 261.4040 15.08841927 15145,6917.874,95.437,540.655,538.824,0.0
54179.0,STARLINK-5122,PAYLOAD,2023-02-02 01:47:04,15.08830675,0.0001224,53.2166,44.0263,94.1023,266.0109,-3.4444e-05,-8.36e-06,0.0,0 STARLINK-5122,1 54179U 22141Y   23033.07435762 -.00000836  00000-0 -34444-4 0  9993,2 54179  53.2166  44.0263 0001224  94.1023 266.0109 15.08830675 15258,6917.909,95.438,540.621,538.927,0.0
54179.0,STARLINK-5122,PAYLOAD,2023-02-02 08:08:36,15.08836413,0.0001229,53.2167,42.8369,94.26,265.8532,1.2639e-05,-8.7e-07,0.0,0 STARLINK-5122,1 54179U 22141Y   23033.33931322 -.00000087  00000-0  12639-4 0  9994,2 54179  53.2167  42.8369 0001229  94.2600 265.8532 15.08836413 15061,6917.891,95.438,540.607,538.906,0.0
54179.0,STARLINK-5122,PAYLOAD,2023-02-03 06:24:00,15.08837058,0.0001215,53.2168,38.6737,94.0436,266.0695,2.686e-05,1.4e-06,0.0,0 STARLINK-5122,1 54179U 22141Y   23034.26667287  .00000140  00000-0  26860-4 0  9993,2 54179  53.2168  38.6737 0001215  94.0436 266.0695 15.08837058 15209,6917.889,95.438,540.595,538.914,0.0
54179.0,STARLINK-5122,PAYLOAD,2023-02-04 06:14:47,15.08839447,0.0001193,53.2168,34.2131,92.4343,267.6786,0.00011922,1.61e-05,0.0,0 STARLINK-5122,1 54179U 22141Y   23035.26026758  .00001610  00000-0  11922-3 0  9991,2 54179  53.2168  34.2131 0001193  92.4343 267.6786 15.08839447 15586,6917.882,95.438,540.572,538.922,0.0
54179.0,STARLINK-5122,PAYLOAD,2023-02-05 02:54:48,15.08832312,0.0001089,53.2161,30.3478,108.1181,251.993,-1.174e-05,-4.75e-06,0.0,0 STARLINK-5122,1 54179U 22141Y   23036.12139561 -.00000475  00000-0 -11740-4 0  9993,2 54179  53.2161  30.3478 0001089 108.1181 251.9930 15.08832312 15715,6917.904,95.438,540.522,539.016,0.0
54179.0,STARLINK-5122,PAYLOAD,2023-02-05 09:16:20,15.08838287,0.0001076,53.2166,29.157,92.0009,268.1107,-1.5309e-05,-5.31e-06,0.0,0 STARLINK-5122,1 54179U 22141Y   23036.38635386 -.00000531  00000-0 -15309-4 0  9995,2 54179  53.2166  29.1570 0001076  92.0009 268.1107 15.08838287 15527,6917.886,95.438,540.495,539.006,0.0
54179.0,STARLINK-5122,PAYLOAD,2023-02-06 02:45:35,15.08839601,0.0001019,53.2173,25.888,84.2095,275.9013,-1.8913e-05,-5.89e-06,0.0,0 STARLINK-5122,1 54179U 22141Y   23037.11499457 -.00000589  00000-0 -18913-4 0  9991,2 54179  53.2173  25.8880 0001019  84.2095 275.9013 15.08839601 15867,6917.882,95.438,540.452,539.042,0.0
54179.0,STARLINK-5122,PAYLOAD,2023-02-06 09:07:07,15.08847694,0.0001045,53.217,24.6985,81.6872,278.4239,4.8948e-05,4.91e-06,0.0,0 STARLINK-5122,1 54179U 22141Y   23037.37994682  .00000491  00000-0  48948-4 0  9990,2 54179  53.2170  24.6985 0001045  81.6872 278.4239 15.08847694 15904,6917.857,95.437,540.445,538.999,0.0
54179.0,STARLINK-5122,PAYLOAD,2023-02-07 02:36:22,15.08839291,0.0001008,53.2178,21.4251,83.1166,276.994,7.7028e-05,9.38e-06,0.0,0 STARLINK-5122,1 54179U 22141Y   23038.10859112  .00000938  00000-0  77028-4 0  9997,2 54179  53.2178  21.4251 0001008  83.1166 276.9940 15.08839291 16014,6917.883,95.438,540.445,539.05,0.0
54179.0,STARLINK-5122,PAYLOAD,2023-02-07 08:57:53,15.0885236,0.000103,53.2173,20.2369,85.2161,274.8949,0.00016393,2.323e-05,0.0,0 STARLINK-5122,1 54179U 22141Y   23038.37353859  .00002323  00000-0  16393-3 0  9990,2 54179  53.2173  20.2369 0001030  85.2161 274.8949 15.08852360 16051,6917.843,95.437,540.42,538.995,0.0
54179.0,STARLINK-5122,PAYLOAD,2023-02-08 04:02:32,15.08840236,0.0001233,53.2178,16.6673,82.8533,277.2599,-1.6135e-05,-5.45e-06,0.0,0 STARLINK-5122,1 54179U 22141Y   23039.16843417 -.00000545  00000-0 -16135-4 0  9993,2 54179  53.2178  16.6673 0001233  82.8533 277.2599 15.08840236 16174,6917.88,95.438,540.598,538.892,0.0
54179.0,STARLINK-5122,PAYLOAD,2023-02-08 07:13:18,15.08843531,0.0001203,53.2174,16.0735,80.3352,279.7776,1.2113e-05,-9.5e-07,0.0,0 STARLINK-5122,1 54179U 22141Y   23039.30091083 -.00000095  00000-0  12113-4 0  9994,2 54179  53.2174  16.0735 0001203  80.3352 279.7776 15.08843531 15963,6917.87,95.437,540.567,538.902,0.0
54179.0,STARLINK-5122,PAYLOAD,2023-02-09 07:04:05,15.08850207,0.0001331,53.2175,11.6118,91.0001,269.1144,1.9213e-05,1.8e-07,0.0,0 STARLINK-5122,1 54179U 22141Y   23040.29451032  .00000018  00000-0  19213-4 0  9990,2 54179  53.2175  11.6118 0001331  91.0001 269.1144 15.08850207 16110,6917.849,95.437,540.635,538.793,0.0
54179.0,STARLINK-5122,PAYLOAD,2023-02-10 05:19:28,15.08858179,0.0001455,53.218,7.4509,117.7557,242.3583,0.00018462,2.653e-05,0.0,0 STARLINK-5122,1 54179U 22141Y   23041.22186148  .00002653  00000-0  18462-3 0  9998,2 54179  53.2180   7.4509 0001455 117.7557 242.3583 15.08858179 16488,6917.825,95.436,540.696,538.683,0.0
54179.0,STARLINK-5122,PAYLOAD,2023-02-11 03:34:54,15.08839846,0.0001641,53.2173,3.2853,115.9812,244.1349,2.5211e-05,1.13e-06,0.0,0 STARLINK-5122,1 54179U 22141Y   23042.14924223  .00000113  00000-0  25211-4 0  9994,2 54179  53.2173   3.2853 0001641 115.9812 244.1349 15.08839846 16623,6917.881,95.438,540.881,538.611,0.0
54179.0,STARLINK-5122,PAYLOAD,2023-02-11 21:04:08,15.08845432,0.000173,53.218,0.0144,130.2711,229.8432,-1.8612e-05,-5.84e-06,0.0,0 STARLINK-5122,1 54179U 22141Y   23042.87787807 -.00000584  00000-0 -18612-4 0  9990,2 54179  53.2180   0.0144 0001730 130.2711 229.8432 15.08845432 16504,6917.864,95.437,540.926,538.532,0.0
54179.0,STARLINK-5122,PAYLOAD,2023-02-12 03:25:40,15.08853841,0.000126,53.2171,358.828,120.6698,239.4418,-6.937e-05,-1.392e-05,0.0,0 STARLINK-5122,1 54179U 22141Y   23043.14283243 -.00001392  00000-0 -69370-4 0  9991,2 54179  53.2171 358.8280 0001260 120.6698 239.4418 15.08853841 16777,6917.838,95.437,540.575,538.831,0.0
54179.0,STARLINK-5122,PAYLOAD,2023-02-13 03:16:28,15.08839934,7.68e-05,53.2186,354.3698,60.4448,299.6621,-8.238e-05,-1.598e-05,0.0,0 STARLINK-5122,1 54179U 22141Y   23044.13644652 -.00001598  00000-0 -82380-4 0  9990,2 54179  53.2186 354.3698 0000768  60.4448 299.6621 15.08839934 16921,6917.881,95.438,540.277,539.214,0.0
54179.0,STARLINK-5122,PAYLOAD,2023-02-14 06:18:00,15.088576,0.0001089,53.2179,349.3116,80.9149,279.1967,0.00012053,1.632e-05,0.0,0 STARLINK-5122,1 54179U 22141Y   23045.26251019  .00001632  00000-0  12053-3 0  9992,2 54179  53.2179 349.3116 0001089  80.9149 279.1967 15.08857600 17099,6917.827,95.436,540.445,538.938,0.0
54179.0,STARLINK-5122,PAYLOAD,2023-02-14 12:39:35,15.08828974,0.0001531,53.2172,348.12,85.3935,274.7232,1.1247e-05,-1.09e-06,0.0,0 STARLINK-5122,1 54179U 22141Y   23045.52749183 -.00000109  00000-0  11247-4 0  9999,2 54179  53.2172 348.1200 0001531  85.3935 274.7232 15.08828974 16904,6917.914,95.438,540.838,538.72,0.0
